STARLINK-34812          
1 66026U 25232X   25302.50003471  .00012147  00000+0  87190-4 0  9999
2 66026  53.1580 357.2286 0001339  78.9820 306.8071 15.74168848  2387
STARLINK-35341          
1 66027U 25232Y   25302.50003471 -.00017585  00000+0 -11610-3 0  9996
2 66027  53.1577 357.2245 0000801  63.6537 324.0578 15.74175145  2436
STARLINK-35339          
1 66028U 25232Z   25302.50003471  .00036443  00000+0  25248-3 0  9991
2 66028  53.1576 357.2205 0001250  78.5550 311.0832 15.74148894  2374
STARLINK-35399          
1 66029U 25232AA  25302.50003471  .00040464  00000+0  27978-3 0  9992
2 66029  53.1576 357.2167 0001592  80.9776 310.5782 15.74144483  2376
STARLINK-35431          
1 66030U 25232AB  25302.50003471 -.00061266  00000+0 -41674-3 0  9998
2 66030  53.1572 357.2117 0000980  61.3904 332.0474 15.74207194  2371
STARLINK-35326          
1 66031U 25232AC  25302.50003471  .00047083  00000+0  32470-3 0  9992
2 66031  53.1579 357.2086 0000800  85.0705 310.3271 15.74137546  2431
STARLINK-35311          
1 66032U 25232AD  25302.50003471 -.00071622  00000+0 -48812-3 0  9998
2 66032  53.1575 357.2043 0001612  57.4685 339.7970 15.74223453  2437
2025-234A               
1 66053U 25234A   25302.44997122  .00034799  00000+0  15190-2 0  9995
2 66053  97.4621   8.0376 0014271 250.1548 109.8150 15.21961278  1574
2025-234B               
1 66054U 25234B   25302.45358296  .00009547  00000+0  43159-3 0  9990
2 66054  97.5047   8.0846 0013677 242.7981 117.1861 15.21067790  1574
2025-234C               
1 66055U 25234C   25302.45303892  .00007950  00000+0  35799-3 0  9990
2 66055  97.4570   8.0275 0014344 245.1331 114.8414 15.21251976  1578
2025-234D               
1 66056U 25234D   25302.45271558  .00024380  00000+0  10826-2 0  9993
2 66056  97.4550   8.0252 0014405 243.5179 116.4580 15.21450150  1568
2025-234E               
1 66057U 25234E   25295.15214147  .00007512  00000+0  33848-3 0  9991
2 66057  97.5441   0.7365 0022152 241.6098 118.2904 15.21126112   466
